SWARM B                 
1 39451U 13067A   26199.29421935  .00001904  00000+0  66908-4 0  9997
2 39451  87.7463 332.8674 0002237  85.4387 274.7118 15.28728808687999
SWARM A                 
1 39452U 13067B   26199.24904568  .00005648  00000+0  94893-4 0  9994
2 39452  87.3297  44.6897 0003335  92.4330 267.7313 15.51494121711061
SWARM C                 
1 39453U 13067C   26199.24895376  .00005751  00000+0  96654-4 0  9993
2 39453  87.3297  43.2706 0003326  92.3995 267.7647 15.51493601711020
BRITE-CA1 (TORONTO)     
1 40020U 14033L   26199.29193805  .00000509  00000+0  83984-4 0  9990
2 40020  97.9775 327.6531 0078700 176.3507 183.8291 14.72726048646795
OCO 2                   
1 40059U 14035A   26199.26253627  .00000158  00000+0  44993-4 0  9997
2 40059  98.2020 140.0839 0001427  81.2840 278.8520 14.57133497640571
BRITE-PL2 (HEWELIUSZ)   
1 40119U 14049B   26198.83391316  .00000566  00000+0  57609-4 0  9990
2 40119  97.9121 311.0758 0014076  13.6033 346.5563 14.94690566646025
MMS 1                   
1 40482U 15011A   26199.33335648 -.00001285  00000+0  00000+0 0  9993
2 40482  72.4677 348.4186 8302059 168.0975 235.6861  0.28331149  1362
MMS 2                   
1 40483U 15011B   26199.33335648 -.00001286  00000+0  00000+0 0  9995
2 40483  72.4716 348.4176 8304874 168.1003 235.6731  0.28331090  1367
MMS 3                   
1 40484U 15011C   26199.33335648 -.00001285  00000+0  00000+0 0  9995
2 40484  72.4714 348.4294 8303241 168.1080 235.6470  0.28331105  1333
MMS 4                   
1 40485U 15011D   26199.33335648 -.00001285  00000+0  00000+0 0  9996
2 40485  72.4670 348.4129 8303192 168.1179 235.6426  0.28331131  1369
ASTROSAT                
1 40930U 15052A   26198.90221392  .00001077  00000+0  49457-4 0  9990
2 40930   5.9973 294.2667 0007418 115.5026 244.5870 14.82554363584397
DAMPE                   
1 41173U 15078A   26199.28276367  .00000347  00000+0  14219-4 0  9999
2 41173  97.4561 204.9047 0011266 334.1824  25.8853 15.30856923589305
PISAT                   
1 41784U 16059B   26198.99984609  .00000430  00000+0  80862-4 0  9999
2 41784  97.8192 198.1308 0030518 106.2658 254.1909 14.69032459524269
HXMT (HUIYAN)           
1 42758U 17034A   26199.31110843  .00002007  00000+0  10540-3 0  9990
2 42758  43.0153   9.7037 0031903 340.2713  19.6900 15.18703754502391
FLYING LAPTOP           
1 42831U 17042G   26199.31260757  .00001709  00000+0  13679-3 0  9995
2 42831  97.4823 353.6768 0019541  22.5475 337.6604 15.01324411491124
ZHANGHENG 1-01 (CSES-1) 
1 43194U 18015C   26199.25980640  .00003558  00000+0  16501-3 0  9993
2 43194  97.6899   5.5393 0016648 154.7414 205.4638 15.20631354469363
SALSAT                  
1 46495U 20068K   26199.01462697  .00004061  00000+0  14177-3 0  9999
2 46495  97.8861 203.9671 0009495 182.8082 177.3106 15.30195257320078
IXPE                    
1 49954U 21121A   26199.33335648  .00006812  00000+0  34695-3 0  9996
2 49954   0.2316  81.5651 0007233 194.1527  25.4676 15.10503596  5892
SMILE                   
1 69123U 26109A   26194.95939329  .00000936  00000+0  00000+0 0  9996
2 69123  70.0512 206.6048 8313707 286.9544   0.1879  0.47500629    65
